ORBCOMM FM115           
1 41186U 15081H   25153.90850568  .00000937  00000+0  21741-3 0  9998
2 41186  46.9980 107.4639 0001385 319.3932  40.6851 14.62479896505689
ORBCOMM FM108           
1 41187U 15081J   25153.78116355  .00000686  00000+0  18400-3 0  9993
2 41187  47.0032 175.0044 0003682 257.4511 102.5963 14.58133603504777
ORBCOMM FM117           
1 41188U 15081K   25153.40472949  .00000448  00000+0  13296-3 0  9991
2 41188  46.9994 175.5485 0004171 260.8266  99.2147 14.58134242504738
ORBCOMM FM116           
1 41189U 15081L   25153.32506754  .00001073  00000+0  26701-3 0  9995
2 41189  47.0022 265.7724 0001367  98.4762 261.6278 14.58154361503554
